start=new Date('2023-06-01T00:00:00.000Z').valueOf();
sats=[{"ELEMENT_SET_NO":"999","CENTER_NAME":"EARTH","SEMIMAJOR_AXIS":"6937.227","REV_AT_EPOCH":"1950","RCS_SIZE":"LARGE","RA_OF_ASC_NODE":"30.6250","TLE_LINE2":"2 55380  43.0039  30.6250 0001373 280.4472  79.6215 15.02532719 19509","EPHEMERIS_TYPE":"0","ECCENTRICITY":"0.00013730","APOAPSIS":"560.044","OBJECT_ID":"2023-013BB","MEAN_MOTION_DOT":"0.00000642","MEAN_MOTION":"15.02532719","EPOCH":"2023-05-31T20:15:25.772256","ARG_OF_PERICENTER":"280.4472","DECAY_DATE":null,"LAUNCH_DATE":"2023-01-26","TLE_LINE1":"1 55380U 23013BB  23151.84404829  .00000642  00000-0  62587-4 0  9995","SITE":"AFETR","OBJECT_TYPE":"PAYLOAD","PERIAPSIS":"558.139","NORAD_CAT_ID":"55380","CLASSIFICATION_TYPE":"U","OBJECT_NAME":"STARLINK-5571","MEAN_ANOMALY":"79.6215","MEAN_ELEMENT_THEORY":"SGP4","PERIOD":"95.838","BSTAR":"0.00006258700000","INCLINATION":"43.0039","GP_ID":"232929624","COUNTRY_CODE":"US","REF_FRAME":"TEME","MEAN_MOTION_DDOT":"0.0000000000000","TIME_SYSTEM":"UTC","FILE":"3922037"},{"MEAN_ELEMENT_THEORY":"SGP4","MEAN_ANOMALY":"83.5636","GP_ID":"232897612","COUNTRY_CODE":"US","INCLINATION":"43.0038","PERIOD":"95.837","BSTAR":"0.00037390000000","TIME_SYSTEM":"UTC","MEAN_MOTION_DDOT":"0.0000000000000","REF_FRAME":"TEME","FILE":"3921767","PERIAPSIS":"558.004","CLASSIFICATION_TYPE":"U","NORAD_CAT_ID":"55381","OBJECT_NAME":"STARLINK-5575","DECAY_DATE":null,"LAUNCH_DATE":"2023-01-26","TLE_LINE1":"1 55381U 23013BC  23151.23079173  .00004853  00000-0  37390-3 0  9990","OBJECT_TYPE":"PAYLOAD","SITE":"AFETR","OBJECT_ID":"2023-013BC","APOAPSIS":"560.041","MEAN_MOTION_DOT":"0.00004853","MEAN_MOTION":"15.02555147","EPOCH":"2023-05-31T05:32:20.405472","ARG_OF_PERICENTER":"276.5039","EPHEMERIS_TYPE":"0","TLE_LINE2":"2 55381  43.0038  59.7583 0001468 276.5039  83.5636 15.02555147 19118","ECCENTRICITY":"0.00014680","RCS_SIZE":"LARGE","RA_OF_ASC_NODE":"59.7583","REV_AT_EPOCH":"1911","ELEMENT_SET_NO":"999","SEMIMAJOR_AXIS":"6937.158","CENTER_NAME":"EARTH"},{"TLE_LINE2":"2 55382  43.0047  56.5798 0001070 270.8858  89.1861 15.02535349 19201","EPHEMERIS_TYPE":"0","ECCENTRICITY":"0.00010700","RA_OF_ASC_NODE":"56.5798","RCS_SIZE":"LARGE","REV_AT_EPOCH":"1920","CENTER_NAME":"EARTH","SEMIMAJOR_AXIS":"6937.219","ELEMENT_SET_NO":"999","REF_FRAME":"TEME","MEAN_MOTION_DDOT":"0.0000000000000","TIME_SYSTEM":"UTC","FILE":"3922037","MEAN_ANOMALY":"89.1861","MEAN_ELEMENT_THEORY":"SGP4","BSTAR":"0.00016587000000","PERIOD":"95.838","INCLINATION":"43.0047","GP_ID":"232931126","COUNTRY_CODE":"US","OBJECT_NAME":"STARLINK-5576","PERIAPSIS":"558.341","NORAD_CAT_ID":"55382","CLASSIFICATION_TYPE":"U","TLE_LINE1":"1 55382U 23013BD  23151.83798389  .00002038  00000-0  16587-3 0  9992","SITE":"AFETR","OBJECT_TYPE":"PAYLOAD","DECAY_DATE":null,"LAUNCH_DATE":"2023-01-26","EPOCH":"2023-05-31T20:06:41.808096","ARG_OF_PERICENTER":"270.8858","APOAPSIS":"559.826","OBJECT_ID":"2023-013BD","MEAN_MOTION_DOT":"0.00002038","MEAN_MOTION":"15.02535349"},{"EPHEMERIS_TYPE":"0","TLE_LINE2":"2 55383  43.0038  30.6032 0001305 272.9179  87.1514 15.02531862 19508","ECCENTRICITY":"0.00013050","RA_OF_ASC_NODE":"30.6032","RCS_SIZE":"LARGE","REV_AT_EPOCH":"1950","ELEMENT_SET_NO":"999","SEMIMAJOR_AXIS":"6937.229","CENTER_NAME":"EARTH","MEAN_ANOMALY":"87.1514","MEAN_ELEMENT_THEORY":"SGP4","COUNTRY_CODE":"US","GP_ID":"232929874","BSTAR":"0.00003343400000","PERIOD":"95.838","INCLINATION":"43.0038","TIME_SYSTEM":"UTC","MEAN_MOTION_DDOT":"0.0000000000000","REF_FRAME":"TEME","FILE":"3922037","PERIAPSIS":"558.189","CLASSIFICATION_TYPE":"U","NORAD_CAT_ID":"55383","OBJECT_NAME":"STARLINK-5531","DECAY_DATE":null,"LAUNCH_DATE":"2023-01-26","TLE_LINE1":"1 55383U 23013BE  23151.84182759  .00000248  00000-0  33434-4 0  9994","OBJECT_TYPE":"PAYLOAD","SITE":"AFETR","OBJECT_ID":"2023-013BE","APOAPSIS":"560.000","MEAN_MOTION_DOT":"0.00000248","MEAN_MOTION":"15.02531862","EPOCH":"2023-05-31T20:12:13.903776","ARG_OF_PERICENTER":"272.9179"},{"REF_FRAME":"TEME","MEAN_MOTION_DDOT":"0.0000000000000","TIME_SYSTEM":"UTC","FILE":"3922037","MEAN_ELEMENT_THEORY":"SGP4","MEAN_ANOMALY":"122.2676","INCLINATION":"43.0042","PERIOD":"95.838","BSTAR":"0.00006672700000","GP_ID":"232930124","COUNTRY_CODE":"US","OBJECT_NAME":"STARLINK-5537","PERIAPSIS":"557.971","NORAD_CAT_ID":"55384","CLASSIFICATION_TYPE":"U","TLE_LINE1":"1 55384U 23013BF  23151.76817658  .00000698  00000-0  66727-4 0  9999","SITE":"AFETR","OBJECT_TYPE":"PAYLOAD","DECAY_DATE":null,"LAUNCH_DATE":"2023-01-26","EPOCH":"2023-05-31T18:26:10.456512","ARG_OF_PERICENTER":"237.8010","APOAPSIS":"560.204","OBJECT_ID":"2023-013BF","MEAN_MOTION_DOT":"0.00000698","MEAN_MOTION":"15.02534036","TLE_LINE2":"2 55384  43.0042  56.9150 0001609 237.8010 122.2676 15.02534036 19198","EPHEMERIS_TYPE":"0","ECCENTRICITY":"0.00016090","RCS_SIZE":"LARGE","RA_OF_ASC_NODE":"56.9150","REV_AT_EPOCH":"1919","CENTER_NAME":"EARTH","SEMIMAJOR_AXIS":"6937.223","ELEMENT_SET_NO":"999"},{"ELEMENT_SET_NO":"999","CENTER_NAME":"EARTH","SEMIMAJOR_AXIS":"6937.224","REV_AT_EPOCH":"1921","RA_OF_ASC_NODE":"56.0785","RCS_SIZE":"LARGE","TLE_LINE2":"2 55385  43.0041  56.0785 0001385 260.5374  99.5312 15.02533446 19210","EPHEMERIS_TYPE":"0","ECCENTRICITY":"0.00013850","APOAPSIS":"560.050","OBJECT_ID":"2023-013BG","MEAN_MOTION_DOT":"0.00000642","MEAN_MOTION":"15.02533446","EPOCH":"2023-05-31T21:16:51.186720","ARG_OF_PERICENTER":"260.5374","DECAY_DATE":null,"LAUNCH_DATE":"2023-01-26","TLE_LINE1":"1 55385U 23013BG  23151.88670355  .00000642  00000-0  62573-4 0  9998","SITE":"AFETR","OBJECT_TYPE":"PAYLOAD","PERIAPSIS":"558.129","NORAD_CAT_ID":"55385","CLASSIFICATION_TYPE":"U","OBJECT_NAME":"STARLINK-5556","MEAN_ELEMENT_THEORY":"SGP4","MEAN_ANOMALY":"99.5312","INCLINATION":"43.0041","PERIOD":"95.838","BSTAR":"0.00006257300000","GP_ID":"232930376","COUNTRY_CODE":"US","MEAN_MOTION_DDOT":"0.0000000000000","REF_FRAME":"TEME","TIME_SYSTEM":"UTC","FILE":"3922037"},{"PERIOD":"95.837","BSTAR":"0.00052990000000","INCLINATION":"43.0032","GP_ID":"232930627","COUNTRY_CODE":"US","MEAN_ELEMENT_THEORY":"SGP4","MEAN_ANOMALY":"79.1948","FILE":"3922037","REF_FRAME":"TEME","MEAN_MOTION_DDOT":"0.0000000000000","TIME_SYSTEM":"UTC","NORAD_CAT_ID":"55386","CLASSIFICATION_TYPE":"U","PERIAPSIS":"558.034","OBJECT_NAME":"STARLINK-5555","LAUNCH_DATE":"2023-01-26","DECAY_DATE":null,"SITE":"AFETR","OBJECT_TYPE":"PAYLOAD","TLE_LINE1":"1 55386U 23013BH  23151.89002707  .00006964  00000-0  52990-3 0  9994","MEAN_MOTION_DOT":"0.00006964","MEAN_MOTION":"15.02548161","APOAPSIS":"560.054","OBJECT_ID":"2023-013BH","ARG_OF_PERICENTER":"280.8730","EPOCH":"2023-05-31T21:21:38.338848","ECCENTRICITY":"0.00014560","TLE_LINE2":"2 55386  43.0032  56.1044 0001456 280.8730  79.1948 15.02548161 19219","EPHEMERIS_TYPE":"0","RA_OF_ASC_NODE":"56.1044","RCS_SIZE":"LARGE","REV_AT_EPOCH":"1921","ELEMENT_SET_NO":"999","CENTER_NAME":"EARTH","SEMIMAJOR_AXIS":"6937.179"},{"OBJECT_NAME":"STARLINK-5077","CLASSIFICATION_TYPE":"U","NORAD_CAT_ID":"55391","PERIAPSIS":"356.887","FILE":"3922037","TIME_SYSTEM":"UTC","MEAN_MOTION_DDOT":"0.0000000000000","REF_FRAME":"TEME","GP_ID":"232929375","COUNTRY_CODE":"US","PERIOD":"91.722","INCLINATION":"69.9974","BSTAR":"-0.00004636600000","MEAN_ANOMALY":"94.0919","MEAN_ELEMENT_THEORY":"SGP4","ARG_OF_PERICENTER":"265.9912","EPOCH":"2023-05-31T21:55:40.982592","MEAN_MOTION_DOT":"-0.00005791","MEAN_MOTION":"15.69953564","OBJECT_ID":"2023-014A","APOAPSIS":"361.177","OBJECT_TYPE":"PAYLOAD","SITE":"AFWTR","TLE_LINE1":"1 55391U 23014A   23151.91366878 -.00005791  00000-0 -46366-4 0  9996","LAUNCH_DATE":"2023-01-31","DECAY_DATE":null,"RA_OF_ASC_NODE":"111.6575","RCS_SIZE":"LARGE","ECCENTRICITY":"0.00031840","EPHEMERIS_TYPE":"0","TLE_LINE2":"2 55391  69.9974 111.6575 0003184 265.9912  94.0919 15.69953564 20013","SEMIMAJOR_AXIS":"6737.167","CENTER_NAME":"EARTH","ELEMENT_SET_NO":"999","REV_AT_EPOCH":"2001"},{"LAUNCH_DATE":"2023-01-31","DECAY_DATE":null,"OBJECT_TYPE":"PAYLOAD","SITE":"AFWTR","TLE_LINE1":"1 55392U 23014B   23151.33787653  .00001567  00000-0  14803-4 0  9997","MEAN_MOTION_DOT":"0.00001567","MEAN_MOTION":"15.69921458","OBJECT_ID":"2023-014B","APOAPSIS":"361.378","ARG_OF_PERICENTER":"265.0357","EPOCH":"2023-05-31T08:06:32.532192","COUNTRY_CODE":"US","GP_ID":"232897361","PERIOD":"91.724","INCLINATION":"69.9973","BSTAR":"0.00001480300000","MEAN_ANOMALY":"95.0457","MEAN_ELEMENT_THEORY":"SGP4","FILE":"3921767","TIME_SYSTEM":"UTC","REF_FRAME":"TEME","MEAN_MOTION_DDOT":"0.0000000000000","CLASSIFICATION_TYPE":"U","NORAD_CAT_ID":"55392","PERIAPSIS":"356.869","OBJECT_NAME":"STARLINK-5085","REV_AT_EPOCH":"1992","ELEMENT_SET_NO":"999","SEMIMAJOR_AXIS":"6737.259","CENTER_NAME":"EARTH","ECCENTRICITY":"0.00033460","EPHEMERIS_TYPE":"0","TLE_LINE2":"2 55392  69.9973 113.2737 0003346 265.0357  95.0457 15.69921458 19928","RCS_SIZE":"LARGE","RA_OF_ASC_NODE":"113.2737"},{"PERIOD":"91.724","BSTAR":"-0.00000611120000","INCLINATION":"69.9970","GP_ID":"232930876","COUNTRY_CODE":"US","MEAN_ANOMALY":"96.6295","MEAN_ELEMENT_THEORY":"SGP4","FILE":"3922037","REF_FRAME":"TEME","MEAN_MOTION_DDOT":"0.0000000000000","TIME_SYSTEM":"UTC","NORAD_CAT_ID":"55393","CLASSIFICATION_TYPE":"U","PERIAPSIS":"356.897","OBJECT_NAME":"STARLINK-4786","LAUNCH_DATE":"2023-01-31","DECAY_DATE":null,"SITE":"AFWTR","OBJECT_TYPE":"PAYLOAD","TLE_LINE1":"1 55393U 23014C   23151.91388039 -.00000948  00000-0 -61112-5 0  9997","MEAN_MOTION_DOT":"-0.00000948","MEAN_MOTION":"15.69932145","APOAPSIS":"361.289","OBJECT_ID":"2023-014C","ARG_OF_PERICENTER":"263.4529","EPOCH":"2023-05-31T21:55:59.265696","ECCENTRICITY":"0.00032600","TLE_LINE2":"2 55393  69.9970 111.6573 0003260 263.4529  96.6295 15.69932145 20018","EPHEMERIS_TYPE":"0","RCS_SIZE":"LARGE","RA_OF_ASC_NODE":"111.6573","REV_AT_EPOCH":"2001","ELEMENT_SET_NO":"999","CENTER_NAME":"EARTH","SEMIMAJOR_AXIS":"6737.228"}];
